OBJECT_NAME,OBJECT_ID,EPOCH,MEAN_MOTION,ECCENTRICITY,INCLINATION,RA_OF_ASC_NODE,ARG_OF_PERICENTER,MEAN_ANOMALY,EPHEMERIS_TYPE,CLASSIFICATION_TYPE,NORAD_CAT_ID,ELEMENT_SET_NO,REV_AT_EPOCH,BSTAR,MEAN_MOTION_DOT,MEAN_MOTION_DDOT
CUTE-1 (CO-55),2003-031E,2026-07-01T23:59:56.675328,14.24344824,.00104087,98.6736,191.3725,137.1021,223.0971,0,U,27844,999,19378,.15002425E-3,.303E-5,0
CUBESAT XI-IV (CO-57),2003-031J,2026-07-02T18:27:18.924192,14.23629228,.000999,98.6769,191.8320,152.4134,207.7577,0,U,27848,999,19359,.14166E-3,.279E-5,0
CUBESAT XI-V,2005-043F,2026-07-02T16:34:05.846880,14.72675255,.0014699,98.3002,339.6391,152.1460,208.0536,0,U,28895,999,10403,.27823E-3,.1723E-4,0
CUTE-1.7+APD II (CO-65),2008-021C,2026-07-02T21:25:24.197952,15.09606626,.000812,97.8286,165.6398,347.2751,12.8271,0,U,32785,999,98756,.46082E-3,.7348E-4,0
CANX-2,2008-021H,2026-07-02T16:57:00.539136,15.05726016,.0010052,97.8637,163.7870,0.8570,359.2672,0,U,32790,999,98714,.33425E-3,.4776E-4,0
SEEDS II (CO-66),2008-021J,2026-07-02T19:13:39.277056,15.33292646,.0001504,97.7521,182.4499,186.8338,173.2883,0,U,32791,999,98968,.62654E-3,.20103E-3,0
SWISSCUBE,2009-051B,2026-07-02T06:55:50.388096,14.62510844,.0007062,98.4025,91.4397,154.9157,205.2388,0,U,35932,999,89136,.23926E-3,.1164E-4,0
BEESAT-1,2009-051C,2026-07-02T07:20:46.114656,14.61745142,.0005269,98.3950,91.0608,165.6666,194.4685,0,U,35933,999,89139,.20391E-3,.968E-5,0
ITUPSAT1,2009-051E,2026-07-01T23:13:26.434848,14.60462418,.00071225,98.4034,89.8935,182.8141,177.3019,0,U,35935,999,89089,.17831616E-3,.816E-5,0
TISAT 1,2010-035E,2026-07-02T19:01:52.526784,15.32310969,.0003418,98.0713,131.7335,142.3895,217.7584,0,U,36799,999,87009,.72453E-3,.22562E-3,0
AEROCUBE 4.5A,2012-048K,2026-06-29T19:35:03.540480,16.17962819,.00188678,64.6148,340.0554,267.4936,92.4076,0,U,38767,999,37468,.11805476E-2,.2026816E-1,.7424434E-5
STRAND-1,2013-009E,2026-07-02T10:37:01.821216,14.37172679,.0008617,98.3927,3.3015,177.2756,182.8479,0,U,39090,999,69925,.12561E-3,.331E-5,0
BRITE-AUSTRIA,2013-009F,2026-07-02T17:46:16.587264,14.36548421,.0009969,98.4001,2.7917,186.9933,173.1116,0,U,39091,999,69928,.86788E-4,.212E-5,0
NEE-01 PEGASO,2013-018B,2026-07-02T08:06:57.360960,14.93736499,.0013773,98.1242,327.9905,112.9357,247.3317,0,U,39151,999,71296,.3337E-3,.3478E-4,0
POPACS 2,2013-055E,2026-06-30T04:38:01.187520,14.91555130,.04162574,80.9915,129.3032,152.0121,210.4183,0,U,39269,999,66515,.23496664E-3,.14049E-3,0
POPACS 3,2013-055F,2026-07-02T12:13:52.827744,14.56411128,.0550469,80.9993,212.5717,23.3588,339.1609,0,U,39270,999,64078,.24146E-3,.10225E-3,0
ZACUBE-1 (TSHEPISOSAT),2013-066B,2026-07-02T11:18:19.602144,15.01273353,.0042932,97.8040,145.8855,196.1986,163.7868,0,U,39417,999,68302,.30455E-3,.3928E-4,0
WNISAT-1,2013-066H,2026-07-02T15:38:45.470688,14.58096043,.0162977,97.7221,331.7119,182.6990,177.3349,0,U,39423,999,66898,.27566E-3,.1475E-4,0
TRITON-1,2013-066M,2026-07-02T18:14:35.623392,14.81754703,.0089585,97.8239,93.2126,182.5901,177.4860,0,U,39427,999,67639,.18837E-3,.1535E-4,0
GOMX-1,2013-066Q,2026-07-02T15:25:37.844832,14.69510522,.0129371,97.6468,23.1296,28.4265,332.3919,0,U,39430,999,67218,.22853E-3,.149E-4,0
CUBEBUG-2 (LO-74),2013-066AA,2026-07-02T19:18:06.183072,14.93892803,.005665,97.8915,132.8497,337.4394,22.4336,0,U,39440,999,67932,.51857E-3,.5629E-4,0
NEE-02 KRYSAOR,2013-066AB,2026-07-02T13:19:12.298080,14.86690645,.0066609,97.8896,122.6607,20.7402,339.6493,0,U,39441,999,67848,.32516E-3,.295E-4,0
FUNCUBE-1 (AO-73),2013-066AE,2026-07-02T10:26:09.274848,15.09675808,.0037288,97.8285,155.2011,149.2742,211.0681,0,U,39444,999,68196,.46292E-3,.7511E-4,0
UWE-3,2013-066AG,2026-07-02T14:07:12.975168,14.97137588,.0047193,97.8709,139.7682,268.5027,91.0788,0,U,39446,999,67988,.30245E-3,.3508E-4,0
BRITE-CA1 (TORONTO),2014-033L,2026-07-02T14:19:42.763008,14.72702923,.0077603,97.9759,312.2426,226.8808,132.5892,0,U,40020,999,64448,.1804E-3,.1152E-4,0
DUCHIFAT-1,2014-033M,2026-07-02T02:25:15.934368,15.67889029,.00000967,98.0445,244.3920,180.5510,179.5749,0,U,40021,999,65808,.12874894E-2,.143832E-2,0
NANOSATC-BR1,2014-033Q,2026-07-02T13:23:04.492032,15.31958906,.0005206,98.0706,217.3122,125.7941,234.3783,0,U,40024,999,65633,.58807E-3,.18089E-3,0
QB50P1,2014-033R,2026-07-02T18:26:57.033024,15.18500631,.0009438,98.0961,196.0094,162.0321,198.1247,0,U,40025,999,65539,.46935E-3,.962E-4,0
QB50P2,2014-033Y,2026-07-02T18:01:13.897056,15.15363125,.0009163,98.0751,181.6017,118.5652,241.6502,0,U,40032,999,65502,.45245E-3,.8472E-4,0
PERSEUS-M2,2014-033AD,2026-07-02T18:52:13.949184,14.95553446,.00105,97.9971,134.6457,246.5167,113.4950,0,U,40037,999,65311,.10314E-3,.1083E-4,0
